IRIDIUM 7 [-]           
1 24793U 97020B   24010.46735577  .00000466  00000+0  15662-3 0  9992
2 24793  86.3946  36.2719 0002401  87.3727 272.7744 14.35032675396762
IRIDIUM 5 [-]           
1 24795U 97020D   24011.05399969  .00004564  00000+0  45159-3 0  9998
2 24795  86.3951 323.0658 0124590 202.2675 157.3114 14.85911156407603
IRIDIUM 4 [-]           
1 24796U 97020E   24010.57565254  .00000527  00000+0  17478-3 0  9995
2 24796  86.3943  33.4522 0002347  92.1886 267.9579 14.35942659397330
IRIDIUM 914 [-]         
1 24836U 97030A   24010.61249785  .00000551  00000+0  16938-3 0  9991
2 24836  86.3918  43.5720 0003633 117.0373 243.1197 14.39774670393862
IRIDIUM 16 [-]          
1 24841U 97030F   24010.21646949  .00000539  00000+0  17291-3 0  9995
2 24841  86.4013  65.3171 0002570  41.8971 318.2423 14.37661019391699
IRIDIUM 911 [-]         
1 24842U 97030G   24010.18904586  .00000638  00000+0  17250-3 0  9991
2 24842  86.4439  64.5881 0015919  50.0475 310.2123 14.46228033399314
IRIDIUM 17 [-]          
1 24870U 97034B   24010.29414864  .00000579  00000+0  18990-3 0  9999
2 24870  86.3955  94.9424 0000638  54.8494 305.2763 14.36756651388337
IRIDIUM 920 [-]         
1 24871U 97034C   24010.22680198  .00000551  00000+0  16687-3 0  9999
2 24871  86.3957  75.4102 0012032  20.2695 339.8979 14.40479559391125
